{"type":"FeatureCollection","features":[{"type":"Feature","properties":{},"geometry":{"coordinates":[[[-118.52879154487718,34.23637758351141],[-118.52879154487718,34.2357528420946],[-118.52750464292899,34.2357528420946],[-118.52750464292899,34.23637758351141],[-118.52879154487718,34.23637758351141]]],"type":"Polygon"}},{"type":"Feature","properties":{},"geometry":{"coordinates":[[[-118.52840996348556,34.23669304523776],[-118.52840996348556,34.236396140115886],[-118.52748219696468,34.236396140115886],[-118.52748219696468,34.23669304523776],[-118.52840996348556,34.23669304523776]]],"type":"Polygon"}},{"type":"Feature","properties":{},"geometry":{"coordinates":[[[-118.53014578471775,34.236748714831265],[-118.53014578471775,34.23594459490383],[-118.52921801819714,34.23594459490383],[-118.52921801819714,34.236748714831265],[-118.53014578471775,34.236748714831265]]],"type":"Polygon"}},{"type":"Feature","properties":{},"geometry":{"coordinates":[[[-118.53096132141764,34.23675490033959],[-118.53096132141764,34.23595078047036],[-118.53024305056275,34.23595078047036],[-118.53024305056275,34.23675490033959],[-118.53096132141764,34.23675490033959]]],"type":"Polygon"}},{"type":"Feature","properties":{},"geometry":{"coordinates":[[[-118.53154491648723,34.23791158237334],[-118.53154491648723,34.237336336075245],[-118.53087901954895,34.237336336075245],[-118.53087901954895,34.23791158237334],[-118.53154491648723,34.23791158237334]]],"type":"Polygon"}},{"type":"Feature","properties":{},"geometry":{"coordinates":[[[-118.53071441581132,34.237855913548785],[-118.53071441581132,34.23686623940799],[-118.52946492380346,34.23686623940799],[-118.52946492380346,34.237855913548785],[-118.53071441581132,34.237855913548785]]],"type":"Polygon"}},{"type":"Feature","properties":{},"geometry":{"coordinates":[[[-118.52942003187512,34.23787446982743],[-118.52942003187512,34.237348707005026],[-118.52914319831649,34.237348707005026],[-118.52914319831649,34.23787446982743],[-118.52942003187512,34.23787446982743]]],"type":"Polygon"}},{"type":"Feature","properties":{},"geometry":{"coordinates":[[[-118.52882147282949,34.23779405925589],[-118.52882147282949,34.236921908887865],[-118.52757946280965,34.236921908887865],[-118.52757946280965,34.23779405925589],[-118.52882147282949,34.23779405925589]]],"type":"Polygon"}},{"type":"Feature","properties":{},"geometry":{"coordinates":[[[-118.5314177232776,34.2385270990965],[-118.5314177232776,34.238038452838936],[-118.53000362753238,34.238038452838936],[-118.53000362753238,34.2385270990965],[-118.5314177232776,34.2385270990965]]],"type":"Polygon"}},{"type":"Feature","properties":{},"geometry":{"coordinates":[[[-118.53096880399332,34.239127078596255],[-118.53096880399332,34.23857039672967],[-118.53038520892373,34.23857039672967],[-118.53038520892373,34.239127078596255],[-118.53096880399332,34.239127078596255]]],"type":"Polygon"}},{"type":"Feature","properties":{},"geometry":{"coordinates":[[[-118.53031787103134,34.239127078596255],[-118.53031787103134,34.238551840603506],[-118.53008592940105,34.238551840603506],[-118.53008592940105,34.239127078596255],[-118.53031787103134,34.239127078596255]]],"type":"Polygon"}},{"type":"Feature","properties":{},"geometry":{"coordinates":[[[-118.5315299530986,34.239127078596255],[-118.5315299530986,34.2386260650818],[-118.53102117790995,34.2386260650818],[-118.53102117790995,34.239127078596255],[-118.5315299530986,34.239127078596255]]],"type":"Polygon"}},{"type":"Feature","properties":{},"geometry":{"coordinates":[[[-118.52885888335751,34.23841576222367],[-118.52885888335751,34.23813123399191],[-118.52761687333766,34.23813123399191],[-118.52761687333766,34.23841576222367],[-118.52885888335751,34.23841576222367]]],"type":"Polygon"}},{"type":"Feature","properties":{},"geometry":{"coordinates":[[[-118.52885140136951,34.23881162599032],[-118.52885140136951,34.2385209137184],[-118.52762435532568,34.2385209137184],[-118.52762435532568,34.23881162599032],[-118.52885140136951,34.23881162599032]]],"type":"Polygon"}},{"type":"Feature","properties":{},"geometry":{"coordinates":[[[-118.5286194597392,34.23915181992696],[-118.5286194597392,34.238879664887804],[-118.52758694538535,34.238879664887804],[-118.52758694538535,34.23915181992696],[-118.5286194597392,34.23915181992696]]],"type":"Polygon"}},{"type":"Feature","properties":{},"geometry":{"coordinates":[[[-118.5284623379896,34.23971468323968],[-118.5284623379896,34.23918893190978],[-118.52813313051459,34.23918893190978],[-118.52813313051459,34.23971468323968],[-118.5284623379896,34.23971468323968]]],"type":"Polygon"}},{"type":"Feature","properties":{},"geometry":{"coordinates":[[[-118.53004103901301,34.240398360930186],[-118.53004103901301,34.23985405803097],[-118.52863442525555,34.23985405803097],[-118.52863442525555,34.240398360930186],[-118.53004103901301,34.240398360930186]]],"type":"Polygon"}},{"type":"Feature","properties":{},"geometry":{"coordinates":[[[-118.53147758072257,34.24073236323903],[-118.53147758072257,34.23990354025861],[-118.53014578684602,34.23990354025861],[-118.53014578684602,34.24073236323903],[-118.53147758072257,34.24073236323903]]],"type":"Polygon"}},{"type":"Feature","properties":{},"geometry":{"coordinates":[[[-118.52845485823092,34.24081907069214],[-118.52845485823092,34.240027360177805],[-118.52752709171031,34.240027360177805],[-118.52752709171031,34.24081907069214],[-118.52845485823092,34.24081907069214]]],"type":"Polygon"}},{"type":"Feature","properties":{},"geometry":{"coordinates":[[[-118.52949278571324,34.24105915536089],[-118.5278093383974,34.24105915536089],[-118.5278093383974,34.24213537183114],[-118.52949278571324,34.24213537183114],[-118.52949278571324,34.24105915536089]]],"type":"Polygon"}},{"type":"Feature","properties":{},"geometry":{"coordinates":[[[-118.53144558459971,34.24154159892862],[-118.53144558459971,34.24104059978335],[-118.53042803422213,34.24104059978335],[-118.53042803422213,34.24154159892862],[-118.53144558459971,34.24154159892862]]],"type":"Polygon"}},{"type":"Feature","properties":{},"geometry":{"coordinates":[[[-118.53109393116041,34.24240133125173],[-118.53109393116041,34.241591080163445],[-118.53006889879482,34.241591080163445],[-118.53006889879482,34.24240133125173],[-118.53109393116041,34.24240133125173]]],"type":"Polygon"}},{"type":"Feature","properties":{},"geometry":{"coordinates":[[[-118.52878947883464,34.24262399430694],[-118.52878947883464,34.242351850493236],[-118.52825825768168,34.242351850493236],[-118.52825825768168,34.24262399430694],[-118.52878947883464,34.24262399430694]]],"type":"Polygon"}},{"type":"Feature","properties":{},"geometry":{"coordinates":[[[-118.5298219931885,34.241331303353974],[-118.5298219931885,34.24100348861771],[-118.52954515962988,34.24100348861771],[-118.52954515962988,34.241331303353974],[-118.5298219931885,34.241331303353974]]],"type":"Polygon"}}]}